{
  "type": "FeatureCollection",
  "features": [
    {
      "type": "Feature",
      "properties": {
        "norad_id": 41581,
        "name": "INTELSAT 31 (IS-31)",
        "group": "intelsat",
        "lat": -0.020994624366812237,
        "lon": 163.9626236479495,
        "alt_km": 35780.12581292839,
        "timestamp": "2025-12-15T11:38:36.825502+00:00",
        "meta_object_name": "INTELSAT 31 (IS-31)",
        "meta_object_id": "2016-035A",
        "meta_epoch": "2025-12-14T21:31:37.107264",
        "meta_mean_motion": 1.00271462,
        "meta_eccentricity": 0.00020191,
        "meta_inclination": 0.0208,
        "meta_ra_of_asc_node": 270.1312,
        "meta_arg_of_pericenter": 298.0083,
        "meta_mean_anomaly": 103.5224,
        "meta_ephemeris_type": 0,
        "meta_classification_type": "U",
        "meta_norad_cat_id": 41581,
        "meta_element_set_no": 999,
        "meta_rev_at_epoch": 3483,
        "meta_bstar": 0,
        "meta_mean_motion_dot": -1.31e-06,
        "meta_mean_motion_ddot": 0,
        "tle_line1": "1 41581U 16035A   25348.89695726 -.00000131  00000+0  00000+0 0  9992",
        "tle_line2": "2 41581   0.0208 270.1312 0002019 298.0083 103.5224  1.00271462 34837"
      },
      "geometry": {
        "type": "Point",
        "coordinates": [
          163.9626236479495,
          -0.020994624366812237
        ]
      }
    },
    {
      "type": "Feature",
      "properties": {
        "norad_id": 41747,
        "name": "INTELSAT 36 (IS-36)",
        "group": "intelsat",
        "lat": -0.009783982199023197,
        "lon": -32.47884152922326,
        "alt_km": 35779.87717224769,
        "timestamp": "2025-12-15T11:38:36.825534+00:00",
        "meta_object_name": "INTELSAT 36 (IS-36)",
        "meta_object_id": "2016-053A",
        "meta_epoch": "2025-12-14T20:35:34.973088",
        "meta_mean_motion": 1.00272499,
        "meta_eccentricity": 0.0001425,
        "meta_inclination": 0.0106,
        "meta_ra_of_asc_node": 352.6059,
        "meta_arg_of_pericenter": 335.2415,
        "meta_mean_anomaly": 133.3072,
        "meta_ephemeris_type": 0,
        "meta_classification_type": "U",
        "meta_norad_cat_id": 41747,
        "meta_element_set_no": 999,
        "meta_rev_at_epoch": 3410,
        "meta_bstar": 0,
        "meta_mean_motion_dot": -5e-08,
        "meta_mean_motion_ddot": 0,
        "tle_line1": "1 41747U 16053A   25348.85804367 -.00000005  00000+0  00000+0 0  9995",
        "tle_line2": "2 41747   0.0106 352.6059 0001425 335.2415 133.3072  1.00272499 34108"
      },
      "geometry": {
        "type": "Point",
        "coordinates": [
          -32.47884152922326,
          -0.009783982199023197
        ]
      }
    },
    {
      "type": "Feature",
      "properties": {
        "norad_id": 41945,
        "name": "INTELSAT 32E (IS-32E)",
        "group": "intelsat",
        "lat": 0.00016304424481297097,
        "lon": -144.14954520541104,
        "alt_km": 35787.498898817095,
        "timestamp": "2025-12-15T11:38:36.825547+00:00",
        "meta_object_name": "INTELSAT 32E (IS-32E)",
        "meta_object_id": "2017-007B",
        "meta_epoch": "2025-12-14T18:20:55.371264",
        "meta_mean_motion": 1.0027145,
        "meta_eccentricity": 2.963e-05,
        "meta_inclination": 0.0333,
        "meta_ra_of_asc_node": 81.0749,
        "meta_arg_of_pericenter": 317.8628,
        "meta_mean_anomaly": 276.7915,
        "meta_ephemeris_type": 0,
        "meta_classification_type": "U",
        "meta_norad_cat_id": 41945,
        "meta_element_set_no": 999,
        "meta_rev_at_epoch": 3237,
        "meta_bstar": 0,
        "meta_mean_motion_dot": -2.5e-06,
        "meta_mean_motion_ddot": 0,
        "tle_line1": "1 41945U 17007B   25348.76452976 -.00000250  00000+0  00000+0 0  9992",
        "tle_line2": "2 41945   0.0333  81.0749 0000296 317.8628 276.7915  1.00271450 32377"
      },
      "geometry": {
        "type": "Point",
        "coordinates": [
          -144.14954520541104,
          0.00016304424481297097
        ]
      }
    },
    {
      "type": "Feature",
      "properties": {
        "norad_id": 42818,
        "name": "INTELSAT 35E (IS-35E)",
        "group": "intelsat",
        "lat": -0.010544695286108064,
        "lon": -135.47231476932384,
        "alt_km": 35780.13890656398,
        "timestamp": "2025-12-15T11:38:36.825559+00:00",
        "meta_object_name": "INTELSAT 35E (IS-35E)",
        "meta_object_id": "2017-041A",
        "meta_epoch": "2025-12-14T21:48:50.457312",
        "meta_mean_motion": 1.00272974,
        "meta_eccentricity": 0.00018627,
        "meta_inclination": 0.0011,
        "meta_ra_of_asc_node": 32.7429,
        "meta_arg_of_pericenter": 235.979,
        "meta_mean_anomaly": 107.8181,
        "meta_ephemeris_type": 0,
        "meta_classification_type": "U",
        "meta_norad_cat_id": 42818,
        "meta_element_set_no": 999,
        "meta_rev_at_epoch": 3096,
        "meta_bstar": 0,
        "meta_mean_motion_dot": -2.18e-06,
        "meta_mean_motion_ddot": 0,
        "tle_line1": "1 42818U 17041A   25348.90891733 -.00000218  00000+0  00000+0 0  9998",
        "tle_line2": "2 42818   0.0011  32.7429 0001862 235.9790 107.8181  1.00272974 30962"
      },
      "geometry": {
        "type": "Point",
        "coordinates": [
          -135.47231476932384,
          -0.010544695286108064
        ]
      }
    },
    {
      "type": "Feature",
      "properties": {
        "norad_id": 42950,
        "name": "INTELSAT 37E (IS-37E)",
        "group": "intelsat",
        "lat": -0.03583737241523814,
        "lon": -118.97050971247624,
        "alt_km": 35773.65610969763,
        "timestamp": "2025-12-15T11:38:36.825571+00:00",
        "meta_object_name": "INTELSAT 37E (IS-37E)",
        "meta_object_id": "2017-059A",
        "meta_epoch": "2025-12-14T20:10:52.339584",
        "meta_mean_motion": 1.00272065,
        "meta_eccentricity": 0.00030412,
        "meta_inclination": 0.0189,
        "meta_ra_of_asc_node": 5.1996,
        "meta_arg_of_pericenter": 251.968,
        "meta_mean_anomaly": 111.3115,
        "meta_ephemeris_type": 0,
        "meta_classification_type": "U",
        "meta_norad_cat_id": 42950,
        "meta_element_set_no": 999,
        "meta_rev_at_epoch": 3021,
        "meta_bstar": 0,
        "meta_mean_motion_dot": -1.21e-06,
        "meta_mean_motion_ddot": 0,
        "tle_line1": "1 42950U 17059A   25348.84088356 -.00000121  00000+0  00000+0 0  9999",
        "tle_line2": "2 42950   0.0189   5.1996 0003041 251.9680 111.3115  1.00272065 30211"
      },
      "geometry": {
        "type": "Point",
        "coordinates": [
          -118.97050971247624,
          -0.03583737241523814
        ]
      }
    },
    {
      "type": "Feature",
      "properties": {
        "norad_id": 43632,
        "name": "AZERSPACE 2 (IS-38)",
        "group": "intelsat",
        "lat": -0.02774198469847842,
        "lon": -55.858939475385235,
        "alt_km": 35782.54766424431,
        "timestamp": "2025-12-15T11:38:36.825583+00:00",
        "meta_object_name": "AZERSPACE 2 (IS-38)",
        "meta_object_id": "2018-074A",
        "meta_epoch": "2025-12-14T21:45:38.733984",
        "meta_mean_motion": 1.00270394,
        "meta_eccentricity": 0.00011651,
        "meta_inclination": 0.0258,
        "meta_ra_of_asc_node": 341.5111,
        "meta_arg_of_pericenter": 284.1193,
        "meta_mean_anomaly": 189.7037,
        "meta_ephemeris_type": 0,
        "meta_classification_type": "U",
        "meta_norad_cat_id": 43632,
        "meta_element_set_no": 999,
        "meta_rev_at_epoch": 2660,
        "meta_bstar": 0,
        "meta_mean_motion_dot": 0,
        "meta_mean_motion_ddot": 0,
        "tle_line1": "1 43632U 18074A   25348.90669831  .00000000  00000+0  00000+0 0  9990",
        "tle_line2": "2 43632   0.0258 341.5111 0001165 284.1193 189.7037  1.00270394 26607"
      },
      "geometry": {
        "type": "Point",
        "coordinates": [
          -55.858939475385235,
          -0.02774198469847842
        ]
      }
    },
    {
      "type": "Feature",
      "properties": {
        "norad_id": 43633,
        "name": "HORIZONS-3E",
        "group": "intelsat",
        "lat": 0.0018235846861934374,
        "lon": 68.01974033828596,
        "alt_km": 35789.80476734579,
        "timestamp": "2025-12-15T11:38:36.825595+00:00",
        "meta_object_name": "HORIZONS-3E",
        "meta_object_id": "2018-074B",
        "meta_epoch": "2025-12-14T19:21:34.561728",
        "meta_mean_motion": 1.00269316,
        "meta_eccentricity": 8.754e-05,
        "meta_inclination": 0.0451,
        "meta_ra_of_asc_node": 191.6793,
        "meta_arg_of_pericenter": 91.0112,
        "meta_mean_anomaly": 260.4121,
        "meta_ephemeris_type": 0,
        "meta_classification_type": "U",
        "meta_norad_cat_id": 43633,
        "meta_element_set_no": 999,
        "meta_rev_at_epoch": 2649,
        "meta_bstar": 0,
        "meta_mean_motion_dot": -1.1e-07,
        "meta_mean_motion_ddot": 0,
        "tle_line1": "1 43633U 18074B   25348.80665002 -.00000011  00000+0  00000+0 0  9999",
        "tle_line2": "2 43633   0.0451 191.6793 0000875  91.0112 260.4121  1.00269316 26496"
      },
      "geometry": {
        "type": "Point",
        "coordinates": [
          68.01974033828596,
          0.0018235846861934374
        ]
      }
    }
  ]
}